{"type": "FeatureCollection", "features": [ {"type": "Feature", "properties": {"norad_id": 66659, "name": "JACK K", "group": "last-30-days", "lat": -34.47668839505782, "lon": -78.84756181222484, "alt_km": 590.2179795591337, "timestamp": "2025-12-14T14:39:28.132931+00:00", "meta": {"OBJECT_NAME": "JACK K", "OBJECT_ID": "2025-274K", "EPOCH": "2025-12-13T17:54:01.705248", "MEAN_MOTION": 14.92817201, "ECCENTRICITY": 0.00119506, "INCLINATION": 97.7385, "RA_OF_ASC_NODE": 274.9442, "ARG_OF_PERICENTER": 276.5891, "MEAN_ANOMALY": 83.3968, "EPHEMERIS_TYPE": 0, "CLASSIFICATION_TYPE": "U", "NORAD_CAT_ID": 66659, "ELEMENT_SET_NO": 999, "REV_AT_EPOCH": 255, "BSTAR": 0.00040681438, "MEAN_MOTION_DOT": 4.159e-05, "MEAN_MOTION_DDOT": 0}, "tle": {"line1": "1 66659U 25274K   25347.74585307  .00004159  00000+0  40681-3 0  9992", "line2": "2 66659  97.7385 274.9442 0011950 276.5891  83.3968 14.92817201  2553"}}, "geometry": {"type": "Point", "coordinates": [-78.84756181222484, -34.47668839505782]}}, {"type": "Feature", "properties": {"norad_id": 66660, "name": "K-HERO", "group": "last-30-days", "lat": -24.926608483553515, "lon": -80.57717711646391, "alt_km": 590.019366613099, "timestamp": "2025-12-14T14:39:28.132941+00:00", "meta": {"OBJECT_NAME": "K-HERO", "OBJECT_ID": "2025-274L", "EPOCH": "2025-12-13T17:51:33.676992", "MEAN_MOTION": 14.92966236, "ECCENTRICITY": 0.00125729, "INCLINATION": 97.7387, "RA_OF_ASC_NODE": 274.9471, "ARG_OF_PERICENTER": 277.076, "MEAN_ANOMALY": 82.903, "EPHEMERIS_TYPE": 0, "CLASSIFICATION_TYPE": "U", "NORAD_CAT_ID": 66660, "ELEMENT_SET_NO": 999, "REV_AT_EPOCH": 255, "BSTAR": 0.00037593724, "MEAN_MOTION_DOT": 3.854e-05, "MEAN_MOTION_DDOT": 0}, "tle": {"line1": "1 66660U 25274L   25347.74413978  .00003854  00000+0  37594-3 0  9998", "line2": "2 66660  97.7387 274.9471 0012572 277.0760  82.9030 14.92966236  2559"}}, "geometry": {"type": "Point", "coordinates": [-80.57717711646391, -24.926608483553515]}}, {"type": "Feature", "properties": {"norad_id": 66661, "name": "SNUGLITE-III", "group": "last-30-days", "lat": -15.48710382558847, "lon": -82.03785850492832, "alt_km": 589.7515155983201, "timestamp": "2025-12-14T14:39:28.132953+00:00", "meta": {"OBJECT_NAME": "SNUGLITE-III", "OBJECT_ID": "2025-274M", "EPOCH": "2025-12-13T17:49:07.204800", "MEAN_MOTION": 14.93104187, "ECCENTRICITY": 0.00132645, "INCLINATION": 97.7386, "RA_OF_ASC_NODE": 274.9487, "ARG_OF_PERICENTER": 278.2917, "MEAN_ANOMALY": 81.6798, "EPHEMERIS_TYPE": 0, "CLASSIFICATION_TYPE": "U", "NORAD_CAT_ID": 66661, "ELEMENT_SET_NO": 999, "REV_AT_EPOCH": 255, "BSTAR": 0.00033044719, "MEAN_MOTION_DOT": 3.393e-05, "MEAN_MOTION_DDOT": 0}, "tle": {"line1": "1 66661U 25274M   25347.74244450  .00003393  00000+0  33045-3 0  9991", "line2": "2 66661  97.7386 274.9487 0013264 278.2917  81.6798 14.93104187  2559"}}, "geometry": {"type": "Point", "coordinates": [-82.03785850492832, -15.48710382558847]}}, {"type": "Feature", "properties": {"norad_id": 66662, "name": "2025-274N", "group": "last-30-days", "lat": -11.792751689766645, "lon": -82.56861454091151, "alt_km": 589.7766177416388, "timestamp": "2025-12-14T14:39:28.132963+00:00", "meta": {"OBJECT_NAME": "2025-274N", "OBJECT_ID": "2025-274N", "EPOCH": "2025-12-13T21:01:09.885504", "MEAN_MOTION": 14.93158466, "ECCENTRICITY": 0.00136876, "INCLINATION": 97.7387, "RA_OF_ASC_NODE": 275.0815, "ARG_OF_PERICENTER": 277.296, "MEAN_ANOMALY": 82.6704, "EPHEMERIS_TYPE": 0, "CLASSIFICATION_TYPE": "U", "NORAD_CAT_ID": 66662, "ELEMENT_SET_NO": 999, "REV_AT_EPOCH": 257, "BSTAR": 0.00037001431, "MEAN_MOTION_DOT": 3.812e-05, "MEAN_MOTION_DDOT": 0}, "tle": {"line1": "1 66662U 25274N   25347.87580886  .00003812  00000+0  37001-3 0  9994", "line2": "2 66662  97.7387 275.0815 0013687 277.2960  82.6704 14.93158466  2573"}}, "geometry": {"type": "Point", "coordinates": [-82.56861454091151, -11.792751689766645]}}, {"type": "Feature", "properties": {"norad_id": 66663, "name": "KSLV-II R/B", "group": "last-30-days", "lat": -75.80873541999507, "lon": 63.392420000851054, "alt_km": 561.2423608802155, "timestamp": "2025-12-14T14:39:28.132973+00:00", "meta": {"OBJECT_NAME": "KSLV-II R/B", "OBJECT_ID": "2025-274P", "EPOCH": "2025-12-13T18:15:29.970720", "MEAN_MOTION": 14.97315087, "ECCENTRICITY": 0.00531336, "INCLINATION": 97.7412, "RA_OF_ASC_NODE": 275.0935, "ARG_OF_PERICENTER": 316.033, "MEAN_ANOMALY": 43.6671, "EPHEMERIS_TYPE": 0, "CLASSIFICATION_TYPE": "U", "NORAD_CAT_ID": 66663, "ELEMENT_SET_NO": 999, "REV_AT_EPOCH": 256, "BSTAR": 0.00062362937, "MEAN_MOTION_DOT": 7.387e-05, "MEAN_MOTION_DDOT": 0}, "tle": {"line1": "1 66663U 25274P   25347.76076355  .00007387  00000+0  62363-3 0  9994", "line2": "2 66663  97.7412 275.0935 0053133 316.0330  43.6671 14.97315087  2566"}}, "geometry": {"type": "Point", "coordinates": [63.392420000851054, -75.80873541999507]}}, {"type": "Feature", "properties": {"norad_id": 66664, "name": "SOYUZ-MS 28", "group": "last-30-days", "lat": 25.336582768254587, "lon": 155.24510503364226, "alt_km": 416.6515490443626, "timestamp": "2025-12-14T14:39:28.132985+00:00", "meta": {"OBJECT_NAME": "SOYUZ-MS 28", "OBJECT_ID": "2025-275A", "EPOCH": "2025-12-13T21:29:24.134208", "MEAN_MOTION": 15.49578, "ECCENTRICITY": 0.00032568, "INCLINATION": 51.6304, "RA_OF_ASC_NODE": 136.7564, "ARG_OF_PERICENTER": 246.2023, "MEAN_ANOMALY": 113.8624, "EPHEMERIS_TYPE": 0, "CLASSIFICATION_TYPE": "U", "NORAD_CAT_ID": 66664, "ELEMENT_SET_NO": 999, "REV_AT_EPOCH": 128, "BSTAR": 0.00022109287, "MEAN_MOTION_DOT": 0.00011998, "MEAN_MOTION_DDOT": 0}, "tle": {"line1": "1 66664U 25275A   25347.89541822  .00011998  00000+0  22109-3 0  9993", "line2": "2 66664  51.6304 136.7564 0003256 246.2023 113.8624 15.49578000  1281"}}, "geometry": {"type": "Point", "coordinates": [155.24510503364226, 25.336582768254587]}}, {"type": "Feature", "properties": {"norad_id": 66791, "name": "STARLINK-35867", "group": "last-30-days", "lat": -37.21040731748791, "lon": -174.02855178099915, "alt_km": 300.56760376989314, "timestamp": "2025-12-14T14:39:28.133158+00:00", "meta": {"OBJECT_NAME": "STARLINK-35867", "OBJECT_ID": "2025-278A", "EPOCH": "2025-12-13T10:15:37.301184", "MEAN_MOTION": 15.88325617, "ECCENTRICITY": 0.0012697, "INCLINATION": 42.9973, "RA_OF_ASC_NODE": 247.8863, "ARG_OF_PERICENTER": 344.0159, "MEAN_ANOMALY": 16.0313, "EPHEMERIS_TYPE": 0, "CLASSIFICATION_TYPE": "U", "NORAD_CAT_ID": 66791, "ELEMENT_SET_NO": 999, "REV_AT_EPOCH": 194, "BSTAR": 0.0023805818, "MEAN_MOTION_DOT": 0.00742252, "MEAN_MOTION_DDOT": 0}, "tle": {"line1": "1 66791U 25278A   25347.42751506  .00742252  00000+0  23806-2 0  9996", "line2": "2 66791  42.9973 247.8863 0012697 344.0159  16.0313 15.88325617  1948"}}, "geometry": {"type": "Point", "coordinates": [-174.02855178099915, -37.21040731748791]}}, {"type": "Feature", "properties": {"norad_id": 66792, "name": "STARLINK-35990", "group": "last-30-days", "lat": -22.47319077830494, "lon": -145.86874027463008, "alt_km": 281.7356324858183, "timestamp": "2025-12-14T14:39:28.133170+00:00", "meta": {"OBJECT_NAME": "STARLINK-35990", "OBJECT_ID": "2025-278B", "EPOCH": "2025-12-13T01:11:23.764704", "MEAN_MOTION": 15.89439223, "ECCENTRICITY": 0.00042805, "INCLINATION": 42.9971, "RA_OF_ASC_NODE": 250.2153, "ARG_OF_PERICENTER": 252.276, "MEAN_ANOMALY": 107.7648, "EPHEMERIS_TYPE": 0, "CLASSIFICATION_TYPE": "U", "NORAD_CAT_ID": 66792, "ELEMENT_SET_NO": 999, "REV_AT_EPOCH": 188, "BSTAR": 0.0072177431, "MEAN_MOTION_DOT": 0.02531554, "MEAN_MOTION_DDOT": 0}, "tle": {"line1": "1 66792U 25278B   25347.04958061  .02531554  00000+0  72177-2 0  9998", "line2": "2 66792  42.9971 250.2153 0004280 252.2760 107.7648 15.89439223  1886"}}, "geometry": {"type": "Point", "coordinates": [-145.86874027463008, -22.47319077830494]}}, {"type": "Feature", "properties": {"norad_id": 66793, "name": "STARLINK-36051", "group": "last-30-days", "lat": -41.97720425512243, "lon": 165.6641193235109, "alt_km": 322.9300180145392, "timestamp": "2025-12-14T14:39:28.133183+00:00", "meta": {"OBJECT_NAME": "STARLINK-36051", "OBJECT_ID": "2025-278C", "EPOCH": "2025-12-13T20:49:34.901184", "MEAN_MOTION": 15.8460337, "ECCENTRICITY": 0.00040454, "INCLINATION": 42.9966, "RA_OF_ASC_NODE": 245.1627, "ARG_OF_PERICENTER": 286.0579, "MEAN_ANOMALY": 73.9848, "EPHEMERIS_TYPE": 0, "CLASSIFICATION_TYPE": "U", "NORAD_CAT_ID": 66793, "ELEMENT_SET_NO": 999, "REV_AT_EPOCH": 201, "BSTAR": -0.0053576145, "MEAN_MOTION_DOT": -0.01144133, "MEAN_MOTION_DDOT": 0}, "tle": {"line1": "1 66793U 25278C   25347.86776506 -.01144133  00000+0 -53576-2 0  9997", "line2": "2 66793  42.9966 245.1627 0004045 286.0579  73.9848 15.84603370  2015"}}, "geometry": {"type": "Point", "coordinates": [165.6641193235109, -41.97720425512243]}}, {"type": "Feature", "properties": {"norad_id": 66794, "name": "STARLINK-36062", "group": "last-30-days", "lat": -42.347677288013266, "lon": 162.57769093811308, "alt_km": 323.42045039882487, "timestamp": "2025-12-14T14:39:28.133193+00:00", "meta": {"OBJECT_NAME": "STARLINK-36062", "OBJECT_ID": "2025-278D", "EPOCH": "2025-12-13T20:50:16.274688", "MEAN_MOTION": 15.84606272, "ECCENTRICITY": 0.00027781, "INCLINATION": 42.9968, "RA_OF_ASC_NODE": 245.1683, "ARG_OF_PERICENTER": 243.3062, "MEAN_ANOMALY": 116.7526, "EPHEMERIS_TYPE": 0, "CLASSIFICATION_TYPE": "U", "NORAD_CAT_ID": 66794, "ELEMENT_SET_NO": 999, "REV_AT_EPOCH": 201, "BSTAR": -0.0045763654, "MEAN_MOTION_DOT": -0.00976185, "MEAN_MOTION_DDOT": 0}, "tle": {"line1": "1 66794U 25278D   25347.86824392 -.00976185  00000+0 -45764-2 0  9994", "line2": "2 66794  42.9968 245.1683 0002778 243.3062 116.7526 15.84606272  2017"}}, "geometry": {"type": "Point", "coordinates": [162.57769093811308, -42.347677288013266]}}]}